{
  "type": "FeatureCollection",
  "features": [
    {
      "type": "Feature",
      "properties": {
        "name": "Kosovo",
        "ISO3166-1-Alpha-3": "-99",
        "ISO3166-1-Alpha-2": "-99"
      },
      "geometry": {
        "type": "Polygon",
        "coordinates": [
          [
            [
              20.064956,
              42.546758
            ],
            [
              20.077048,
              42.55991
            ],
            [
              20.078185,
              42.572906
            ],
            [
              20.075394,
              42.586962
            ],
            [
              20.075704,
              42.603085
            ],
            [
              20.079218,
              42.61125
            ],
            [
              20.090587,
              42.627348
            ],
            [
              20.10392,
              42.653108
            ],
            [
              20.101956,
              42.656674
            ],
            [
              20.094205,
              42.666983
            ],
            [
              20.037006,
              42.707363
            ],
            [
              20.03612,
              42.707989
            ],
            [
              20.024751,
              42.723414
            ],
            [
              20.026508,
              42.743206
            ],
            [
              20.034673,
              42.751423
            ],
            [
              20.055638,
              42.763866
            ],
            [
              20.065059,
              42.769458
            ],
            [
              20.076325,
              42.773437
            ],
            [
              20.112085,
              42.766538
            ],
            [
              20.149498,
              42.749872
            ],
            [
              20.183398,
              42.742508
            ],
            [
              20.208409,
              42.763282
            ],
            [
              20.20996,
              42.772972
            ],
            [
              20.208409,
              42.782093
            ],
            [
              20.209236,
              42.791704
            ],
            [
              20.217608,
              42.802737
            ],
            [
              20.226083,
              42.806768
            ],
            [
              20.264427,
              42.817258
            ],
            [
              20.345352,
              42.827439
            ],
            [
              20.428034,
              42.840642
            ],
            [
              20.4763,
              42.855525
            ],
            [
              20.498831,
              42.877875
            ],
            [
              20.494367,
              42.887467
            ],
            [
              20.488909,
              42.899191
            ],
            [
              20.466688,
              42.909501
            ],
            [
              20.450979,
              42.922032
            ],
            [
              20.459454,
              42.950015
            ],
            [
              20.476403,
              42.966371
            ],
            [
              20.493457,
              42.970195
            ],
            [
              20.51113,
              42.970195
            ],
            [
              20.530457,
              42.975156
            ],
            [
              20.538415,
              42.980659
            ],
            [
              20.543893,
              42.987248
            ],
            [
              20.553401,
              43.002596
            ],
            [
              20.562393,
              43.009495
            ],
            [
              20.572832,
              43.00934
            ],
            [
              20.584304,
              43.006911
            ],
            [
              20.596396,
              43.007092
            ],
            [
              20.617273,
              43.02213
            ],
            [
              20.643835,
              43.052257
            ],
            [
              20.664919,
              43.085407
            ],
            [
              20.669157,
              43.109799
            ],
            [
              20.661818,
              43.115948
            ],
            [
              20.65169,
              43.11631
            ],
            [
              20.640941,
              43.115276
            ],
            [
              20.632053,
              43.117266
            ],
            [
              20.626058,
              43.123725
            ],
            [
              20.620581,
              43.133337
            ],
            [
              20.612106,
              43.154938
            ],
            [
              20.600117,
              43.173826
            ],
            [
              20.597533,
              43.184962
            ],
            [
              20.604044,
              43.197959
            ],
            [
              20.612312,
              43.202274
            ],
            [
              20.644869,
              43.203307
            ],
            [
              20.666986,
              43.209663
            ],
            [
              20.745328,
              43.252865
            ],
            [
              20.769512,
              43.260849
            ],
            [
              20.79442,
              43.263071
            ],
            [
              20.809717,
              43.25961
            ],
            [
              20.819432,
              43.257412
            ],
            [
              20.838449,
              43.245863
            ],
            [
              20.848474,
              43.238137
            ],
            [
              20.855088,
              43.231445
            ],
            [
              20.8647,
              43.217337
            ],
            [
              20.8616,
              43.217518
            ],
            [
              20.851471,
              43.219818
            ],
            [
              20.839999,
              43.212092
            ],
            [
              20.840619,
              43.206976
            ],
            [
              20.839069,
              43.192455
            ],
            [
              20.836071,
              43.179433
            ],
            [
              20.832041,
              43.178606
            ],
            [
              20.838552,
              43.170467
            ],
            [
              20.912494,
              43.138805
            ],
            [
              20.993431,
              43.104148
            ],
            [
              21.005157,
              43.099128
            ],
            [
              21.025827,
              43.093366
            ],
            [
              21.092593,
              43.090678
            ],
            [
              21.10851,
              43.081558
            ],
            [
              21.124012,
              43.058277
            ],
            [
              21.139309,
              43.005826
            ],
            [
              21.147887,
              42.992622
            ],
            [
              21.165354,
              42.985103
            ],
            [
              21.17941,
              42.990581
            ],
            [
              21.193052,
              42.997893
            ],
            [
              21.209795,
              42.995878
            ],
            [
              21.225298,
              42.973554
            ],
            [
              21.226745,
              42.942522
            ],
            [
              21.23243,
              42.910896
            ],
            [
              21.260542,
              42.886556
            ],
            [
              21.2716,
              42.884283
            ],
            [
              21.294958,
              42.884386
            ],
            [
              21.306327,
              42.882448
            ],
            [
              21.316972,
              42.877616
            ],
            [
              21.336403,
              42.865473
            ],
            [
              21.346738,
              42.860847
            ],
            [
              21.378777,
              42.855292
            ],
            [
              21.398931,
              42.854569
            ],
            [
              21.40844,
              42.846998
            ],
            [
              21.408419,
              42.841743
            ],
            [
              21.408336,
              42.820747
            ],
            [
              21.404099,
              42.803978
            ],
            [
              21.39056,
              42.770414
            ],
            [
              21.387149,
              42.754962
            ],
            [
              21.383945,
              42.749976
            ],
            [
              21.379191,
              42.747004
            ],
            [
              21.378674,
              42.744136
            ],
            [
              21.388699,
              42.739046
            ],
            [
              21.405546,
              42.7353
            ],
            [
              21.4178,
              42.73557
            ],
            [
              21.441823,
              42.736101
            ],
            [
              21.542488,
              42.725817
            ],
            [
              21.565226,
              42.720184
            ],
            [
              21.580522,
              42.710211
            ],
            [
              21.612665,
              42.680393
            ],
            [
              21.629408,
              42.672203
            ],
            [
              21.644084,
              42.672306
            ],
            [
              21.687389,
              42.686827
            ],
            [
              21.708886,
              42.687189
            ],
            [
              21.738652,
              42.68215
            ],
            [
              21.74425,
              42.679425
            ],
            [
              21.764387,
              42.669619
            ],
            [
              21.772758,
              42.647501
            ],
            [
              21.767074,
              42.638716
            ],
            [
              21.756532,
              42.633626
            ],
            [
              21.744543,
              42.629647
            ],
            [
              21.734725,
              42.624247
            ],
            [
              21.735551,
              42.621276
            ],
            [
              21.730074,
              42.601018
            ],
            [
              21.728833,
              42.598305
            ],
            [
              21.726973,
              42.596393
            ],
            [
              21.720152,
              42.593887
            ],
            [
              21.718291,
              42.591019
            ],
            [
              21.719738,
              42.586678
            ],
            [
              21.726766,
              42.577945
            ],
            [
              21.727697,
              42.574147
            ],
            [
              21.717671,
              42.551151
            ],
            [
              21.667855,
              42.490095
            ],
            [
              21.627858,
              42.460381
            ],
            [
              21.618969,
              42.449245
            ],
            [
              21.616902,
              42.433923
            ],
            [
              21.621863,
              42.402167
            ],
            [
              21.617419,
              42.386639
            ],
            [
              21.596645,
              42.372092
            ],
            [
              21.537321,
              42.35863
            ],
            [
              21.51603,
              42.341939
            ],
            [
              21.514893,
              42.317832
            ],
            [
              21.553857,
              42.273984
            ],
            [
              21.564066,
              42.246289
            ],
            [
              21.561815,
              42.247164
            ],
            [
              21.519854,
              42.239025
            ],
            [
              21.499287,
              42.238663
            ],
            [
              21.48151,
              42.247784
            ],
            [
              21.471973,
              42.23913
            ],
            [
              21.467557,
              42.235123
            ],
            [
              21.457222,
              42.237035
            ],
            [
              21.44792,
              42.244141
            ],
            [
              21.436345,
              42.24688
            ],
            [
              21.419912,
              42.240058
            ],
            [
              21.421462,
              42.231351
            ],
            [
              21.428697,
              42.222566
            ],
            [
              21.429834,
              42.215848
            ],
            [
              21.419085,
              42.215021
            ],
            [
              21.384255,
              42.224943
            ],
            [
              21.366788,
              42.223858
            ],
            [
              21.360602,
              42.220114
            ],
            [
              21.353766,
              42.215977
            ],
            [
              21.294958,
              42.148979
            ],
            [
              21.293718,
              42.140168
            ],
            [
              21.295785,
              42.134794
            ],
            [
              21.298782,
              42.129419
            ],
            [
              21.300332,
              42.120893
            ],
            [
              21.301263,
              42.10061
            ],
            [
              21.300796,
              42.098425
            ],
            [
              21.299299,
              42.091411
            ],
            [
              21.28886,
              42.089706
            ],
            [
              21.245727,
              42.096167
            ],
            [
              21.237804,
              42.097354
            ],
            [
              21.229298,
              42.103822
            ],
            [
              21.225402,
              42.106785
            ],
            [
              21.216203,
              42.121151
            ],
            [
              21.199873,
              42.14115
            ],
            [
              21.164423,
              42.16704
            ],
            [
              21.12639,
              42.188925
            ],
            [
              21.112954,
              42.194402
            ],
            [
              21.106236,
              42.195798
            ],
            [
              21.098484,
              42.195953
            ],
            [
              21.074403,
              42.184455
            ],
            [
              21.04094,
              42.15997
            ],
            [
              21.029238,
              42.151408
            ],
            [
              21.003916,
              42.141951
            ],
            [
              20.975145,
              42.134658
            ],
            [
              20.90417,
              42.116668
            ],
            [
              20.810543,
              42.092936
            ],
            [
              20.784912,
              42.082032
            ],
            [
              20.765378,
              42.064333
            ],
            [
              20.755353,
              42.042784
            ],
            [
              20.743054,
              41.993484
            ],
            [
              20.741814,
              41.970773
            ],
            [
              20.751439,
              41.940338
            ],
            [
              20.754423,
              41.930904
            ],
            [
              20.751052,
              41.910218
            ],
            [
              20.750495,
              41.906797
            ],
            [
              20.739953,
              41.888039
            ],
            [
              20.723313,
              41.866619
            ],
            [
              20.714398,
              41.859163
            ],
            [
              20.702953,
              41.849591
            ],
            [
              20.681456,
              41.84401
            ],
            [
              20.671844,
              41.849307
            ],
            [
              20.652827,
              41.86928
            ],
            [
              20.643422,
              41.873647
            ],
            [
              20.637014,
              41.870365
            ],
            [
              20.626162,
              41.855198
            ],
            [
              20.61872,
              41.850522
            ],
            [
              20.602391,
              41.849876
            ],
            [
              20.590298,
              41.854733
            ],
            [
              20.567147,
              41.873182
            ],
            [
              20.567767,
              41.88052
            ],
            [
              20.562703,
              41.892845
            ],
            [
              20.562496,
              41.900105
            ],
            [
              20.567251,
              41.912172
            ],
            [
              20.573348,
              41.917675
            ],
            [
              20.580583,
              41.921732
            ],
            [
              20.588748,
              41.929586
            ],
            [
              20.59929,
              41.94788
            ],
            [
              20.59929,
              41.960567
            ],
            [
              20.594329,
              41.973718
            ],
            [
              20.589678,
              41.993639
            ],
            [
              20.558259,
              42.055109
            ],
            [
              20.552161,
              42.07379
            ],
            [
              20.551954,
              42.105803
            ],
            [
              20.549371,
              42.123476
            ],
            [
              20.538622,
              42.150116
            ],
            [
              20.500795,
              42.211223
            ],
            [
              20.481674,
              42.230705
            ],
            [
              20.473665,
              42.237123
            ],
            [
              20.456973,
              42.250497
            ],
            [
              20.333363,
              42.317883
            ],
            [
              20.317964,
              42.319821
            ],
            [
              20.249647,
              42.318607
            ],
            [
              20.237762,
              42.319924
            ],
            [
              20.229597,
              42.32672
            ],
            [
              20.220915,
              42.343101
            ],
            [
              20.219468,
              42.350207
            ],
            [
              20.221225,
              42.36372
            ],
            [
              20.218848,
              42.371446
            ],
            [
              20.21306,
              42.377518
            ],
            [
              20.197454,
              42.38744
            ],
            [
              20.192803,
              42.393693
            ],
            [
              20.194043,
              42.4001
            ],
            [
              20.204379,
              42.411831
            ],
            [
              20.204689,
              42.420099
            ],
            [
              20.199728,
              42.427799
            ],
            [
              20.186292,
              42.437437
            ],
            [
              20.180814,
              42.443095
            ],
            [
              20.152702,
              42.493402
            ],
            [
              20.152599,
              42.493609
            ],
            [
              20.152599,
              42.493712
            ],
            [
              20.152392,
              42.493712
            ],
            [
              20.135546,
              42.509629
            ],
            [
              20.085626,
              42.530015
            ],
            [
              20.064956,
              42.546758
            ]
          ]
        ]
      }
    },
    {
      "type": "Feature",
      "properties": {
        "name": "Liechtenstein",
        "ISO3166-1-Alpha-3": "LIE",
        "ISO3166-1-Alpha-2": "LI"
      },
      "geometry": {
        "type": "Polygon",
        "coordinates": [
          [
            [
              9.521155,
              47.262801
            ],
            [
              9.53025,
              47.253654
            ],
            [
              9.547096,
              47.243035
            ],
            [
              9.540378,
              47.229108
            ],
            [
              9.544823,
              47.220323
            ],
            [
              9.554331,
              47.211615
            ],
            [
              9.562909,
              47.19774
            ],
            [
              9.561876,
              47.190609
            ],
            [
              9.551954,
              47.175571
            ],
            [
              9.552057,
              47.16689
            ],
            [
              9.581823,
              47.154901
            ],
            [
              9.605594,
              47.132266
            ],
            [
              9.615723,
              47.106764
            ],
            [
              9.608798,
              47.080771
            ],
            [
              9.581203,
              47.05687
            ],
            [
              9.560636,
              47.0524
            ],
            [
              9.499554,
              47.059351
            ],
            [
              9.477023,
              47.063898
            ],
            [
              9.475886,
              47.073226
            ],
            [
              9.487565,
              47.083949
            ],
            [
              9.502861,
              47.094698
            ],
            [
              9.51237,
              47.10803
            ],
            [
              9.511853,
              47.129372
            ],
            [
              9.503481,
              47.145392
            ],
            [
              9.492629,
              47.15981
            ],
            [
              9.484981,
              47.176346
            ],
            [
              9.487358,
              47.210014
            ],
            [
              9.504618,
              47.243732
            ],
            [
              9.521155,
              47.262801
            ]
          ]
        ]
      }
    },
    {
      "type": "Feature",
      "properties": {
        "name": "San Marino",
        "ISO3166-1-Alpha-3": "SMR",
        "ISO3166-1-Alpha-2": "SM"
      },
      "geometry": {
        "type": "Polygon",
        "coordinates": [
          [
            [
              12.42945,
              43.892056
            ],
            [
              12.399581,
              43.903218
            ],
            [
              12.385629,
              43.924534
            ],
            [
              12.395654,
              43.948409
            ],
            [
              12.411049,
              43.959661
            ],
            [
              12.421389,
              43.967219
            ],
            [
              12.453325,
              43.979053
            ],
            [
              12.48216,
              43.982567
            ],
            [
              12.489188,
              43.97311
            ],
            [
              12.492392,
              43.956419
            ],
            [
              12.490325,
              43.939159
            ],
            [
              12.483094,
              43.929205
            ],
            [
              12.48216,
              43.927919
            ],
            [
              12.479576,
              43.9258
            ],
            [
              12.478026,
              43.923216
            ],
            [
              12.477494,
              43.920051
            ],
            [
              12.478287,
              43.917038
            ],
            [
              12.460456,
              43.895259
            ],
            [
              12.42945,
              43.892056
            ]
          ]
        ]
      }
    },
    {
      "type": "Feature",
      "properties": {
        "name": "Monaco",
        "ISO3166-1-Alpha-3": "MCO",
        "ISO3166-1-Alpha-2": "MC"
      },
      "geometry": {
        "type": "Polygon",
        "coordinates": [
          [
            [
              7.437454,
              43.743361
            ],
            [
              7.432845,
              43.739853
            ],
            [
              7.417957,
              43.730904
            ],
            [
              7.404319,
              43.717969
            ],
            [
              7.380723,
              43.719273
            ],
            [
              7.36575,
              43.72273
            ],
            [
              7.367263,
              43.734125
            ],
            [
              7.372655,
              43.745832
            ],
            [
              7.387538,
              43.757899
            ],
            [
              7.406969,
              43.763506
            ],
            [
              7.426246,
              43.755464
            ],
            [
              7.437454,
              43.743361
            ]
          ]
        ]
      }
    },
    {
      "type": "Feature",
      "properties": {
        "name": "Andorra",
        "ISO3166-1-Alpha-3": "AND",
        "ISO3166-1-Alpha-2": "AD"
      },
      "geometry": {
        "type": "Polygon",
        "coordinates": [
          [
            [
              1.707006,
              42.502781
            ],
            [
              1.697498,
              42.494462
            ],
            [
              1.686336,
              42.490612
            ],
            [
              1.674244,
              42.490508
            ],
            [
              1.662358,
              42.493712
            ],
            [
              1.659774,
              42.496813
            ],
            [
              1.656984,
              42.49764
            ],
            [
              1.653986,
              42.496529
            ],
            [
              1.650369,
              42.493402
            ],
            [
              1.639517,
              42.466427
            ],
            [
              1.607478,
              42.456428
            ],
            [
              1.544432,
              42.450356
            ],
            [
              1.538851,
              42.445653
            ],
            [
              1.534511,
              42.439917
            ],
            [
              1.528206,
              42.434233
            ],
            [
              1.51663,
              42.429504
            ],
            [
              1.508466,
              42.428677
            ],
            [
              1.447901,
              42.434646
            ],
            [
              1.436429,
              42.440951
            ],
            [
              1.436429,
              42.453482
            ],
            [
              1.407593,
              42.486762
            ],
            [
              1.424543,
              42.492472
            ],
            [
              1.430227,
              42.493557
            ],
            [
              1.449968,
              42.504073
            ],
            [
              1.446557,
              42.519886
            ],
            [
              1.428987,
              42.531462
            ],
            [
              1.406456,
              42.52924
            ],
            [
              1.409764,
              42.540609
            ],
            [
              1.4263,
              42.561796
            ],
            [
              1.426403,
              42.565646
            ],
            [
              1.418032,
              42.569832
            ],
            [
              1.419272,
              42.579263
            ],
            [
              1.424853,
              42.589365
            ],
            [
              1.429297,
              42.595386
            ],
            [
              1.451415,
              42.602052
            ],
            [
              1.466814,
              42.641455
            ],
            [
              1.49844,
              42.640241
            ],
            [
              1.527793,
              42.648535
            ],
            [
              1.543089,
              42.649362
            ],
            [
              1.597349,
              42.621921
            ],
            [
              1.608304,
              42.618123
            ],
            [
              1.721993,
              42.609855
            ],
            [
              1.713311,
              42.589546
            ],
            [
              1.729434,
              42.582001
            ],
            [
              1.752688,
              42.576679
            ],
            [
              1.761107,
              42.567646
            ],
            [
              1.765091,
              42.563372
            ],
            [
              1.739976,
              42.561641
            ],
            [
              1.721683,
              42.548515
            ],
            [
              1.710624,
              42.527741
            ],
            [
              1.707006,
              42.502781
            ]
          ]
        ]
      }
    },
    {
      "type": "Feature",
      "properties": {
        "name": "Vatican",
        "ISO3166-1-Alpha-3": "VAT",
        "ISO3166-1-Alpha-2": "VA"
      },
      "geometry": {
        "type": "Polygon",
        "coordinates": [
          [
            [
              12.453137,
              41.902752
            ],
            [
              12.452714,
              41.903016
            ],
            [
              12.452767,
              41.903439
            ],
            [
              12.453031,
              41.903915
            ],
            [
              12.453983,
              41.903862
            ],
            [
              12.454035,
              41.902752
            ],
            [
              12.453137,
              41.902752
            ]
          ]
        ]
      }
    }
  ]
}